0 FENGYUN 1C DEB
1 29868U 99025FN  13282.75344451  .00001846  00000-0  29653-3 0  8342
2 29868 098.5059 295.8880 0294319 144.5629 274.6510 14.47940639355140
0 FENGYUN 1C DEB
1 29868U 99025FN  13283.99835399  .00002802  00000-0  44498-3 0  8353
2 29868 098.5062 297.1421 0294265 140.7842 283.8461 14.47940949355326
0 FENGYUN 1C DEB
1 29868U 99025FN  13286.76133722  .00002558  00000-0  40684-3 0  8375
2 29868 098.5053 299.9266 0294305 132.4239 286.1726 14.47953257355726
0 FENGYUN 1C DEB
1 29868U 99025FN  13288.00454707  .00004012  00000-0  63244-3 0  8388
2 29868 098.5048 301.1793 0294291 128.6636 286.5640 14.47961799355902
0 FENGYUN 1C DEB
1 29868U 99025FN  13289.54323281  .00003455  00000-0  54577-3 0  8390
2 29868 098.5043 302.7298 0294298 124.0101 027.2235 14.47973136356121
0 FENGYUN 1C DEB
1 29868U 99025FN  13290.70214189  .00003522  00000-0  55597-3 0  8406
2 29868 098.5043 303.8973 0294343 120.4986 308.2740 14.47979803356293
0 FENGYUN 1C DEB
1 29868U 99025FN  13291.73767356  .00003323  00000-0  52505-3 0  8415
2 29868 098.5043 304.9405 0294350 117.3662 306.2164 14.47984447356444
0 FENGYUN 1C DEB
1 29868U 99025FN  13292.98093345  .00003593  00000-0  56687-3 0  8428
2 29868 098.5045 306.1930 0294328 113.6068 307.0152 14.47989111356626
0 FENGYUN 1C DEB
1 29868U 99025FN  13294.01177743  .00003863  00000-0  60857-3 0  8434
2 29868 098.5046 307.2314 0294334 110.4875 280.5650 14.47994774356778
0 FENGYUN 1C DEB
1 29868U 99025FN  13295.74538444  .00004333  00000-0  68128-3 0  8447
2 29868 098.5049 308.9778 0294327 105.2421 317.5034 14.48005933357021
